start=new Date('2022-02-26T00:00:00.000Z').valueOf();
sats=[{"MEAN_ANOMALY":"279.1946","ARG_OF_PERICENTER":"80.9213","DECAY_DATE":null,"SITE":"AFETR","CLASSIFICATION_TYPE":"U","PERIOD":"95.592","TLE_LINE1":"1 46541U 20070K   22056.88008681  .00004039  00000-0  28985-3 0  9994","PERIAPSIS":"546.158","TLE_LINE2":"2 46541  53.0556 288.3171 0001499  80.9213 279.1946 15.06405749 77791","TIME_SYSTEM":"UTC","FILE":"3323947","APOAPSIS":"548.234","ELEMENT_SET_NO":"999","MEAN_MOTION_DOT":"0.00004039","INCLINATION":"53.0556","SEMIMAJOR_AXIS":"6925.331","RCS_SIZE":"LARGE","MEAN_MOTION_DDOT":"0.0000000000000","RA_OF_ASC_NODE":"288.3171","LAUNCH_DATE":"2020-10-06","NORAD_CAT_ID":"46541","OBJECT_NAME":"STARLINK-1687","ECCENTRICITY":"0.00014990","REF_FRAME":"TEME","MEAN_MOTION":"15.06405749","OBJECT_TYPE":"PAYLOAD","MEAN_ELEMENT_THEORY":"SGP4","BSTAR":"0.00028985000000","EPHEMERIS_TYPE":"0","COUNTRY_CODE":"US","REV_AT_EPOCH":"7779","GP_ID":"197033023","EPOCH":"2022-02-25T21:07:19.500384","OBJECT_ID":"2020-070K","CENTER_NAME":"EARTH"},{"GP_ID":"197000885","EPOCH":"2022-02-25T21:09:58.490208","OBJECT_ID":"2020-070L","CENTER_NAME":"EARTH","MEAN_MOTION":"15.06403540","OBJECT_TYPE":"PAYLOAD","MEAN_ELEMENT_THEORY":"SGP4","BSTAR":"0.00011671000000","EPHEMERIS_TYPE":"0","COUNTRY_CODE":"US","REV_AT_EPOCH":"7753","RA_OF_ASC_NODE":"308.3111","LAUNCH_DATE":"2020-10-06","NORAD_CAT_ID":"46542","ECCENTRICITY":"0.00014470","OBJECT_NAME":"STARLINK-1692","REF_FRAME":"TEME","FILE":"3323524","APOAPSIS":"548.205","ELEMENT_SET_NO":"999","INCLINATION":"53.0550","MEAN_MOTION_DOT":"0.00001457","SEMIMAJOR_AXIS":"6925.338","RCS_SIZE":"LARGE","MEAN_MOTION_DDOT":"0.0000000000000","TIME_SYSTEM":"UTC","TLE_LINE1":"1 46542U 20070L   22056.88192697  .00001457  00000-0  11671-3 0  9991","PERIAPSIS":"546.201","TLE_LINE2":"2 46542  53.0550 308.3111 0001447  74.2486 285.8663 15.06403540 77533","SITE":"AFETR","CLASSIFICATION_TYPE":"U","PERIOD":"95.592","MEAN_ANOMALY":"285.8663","ARG_OF_PERICENTER":"74.2486","DECAY_DATE":null},{"GP_ID":"197001378","OBJECT_ID":"2020-070M","EPOCH":"2022-02-25T20:48:44.828064","CENTER_NAME":"EARTH","MEAN_MOTION":"15.06402233","BSTAR":"0.00012584000000","MEAN_ELEMENT_THEORY":"SGP4","OBJECT_TYPE":"PAYLOAD","REV_AT_EPOCH":"7753","EPHEMERIS_TYPE":"0","COUNTRY_CODE":"US","LAUNCH_DATE":"2020-10-06","RA_OF_ASC_NODE":"308.3687","NORAD_CAT_ID":"46543","ECCENTRICITY":"0.00017150","OBJECT_NAME":"STARLINK-1693","REF_FRAME":"TEME","APOAPSIS":"548.394","FILE":"3323524","ELEMENT_SET_NO":"999","SEMIMAJOR_AXIS":"6925.342","RCS_SIZE":"LARGE","INCLINATION":"53.0549","MEAN_MOTION_DOT":"0.00001593","MEAN_MOTION_DDOT":"0.0000000000000","TIME_SYSTEM":"UTC","TLE_LINE1":"1 46543U 20070M   22056.86718551  .00001593  00000-0  12584-3 0  9998","PERIAPSIS":"546.019","TLE_LINE2":"2 46543  53.0549 308.3687 0001715  53.7168 306.3979 15.06402233 77534","CLASSIFICATION_TYPE":"U","SITE":"AFETR","PERIOD":"95.592","MEAN_ANOMALY":"306.3979","ARG_OF_PERICENTER":"53.7168","DECAY_DATE":null},{"MEAN_MOTION_DOT":"0.00000015","INCLINATION":"53.0554","RCS_SIZE":"LARGE","SEMIMAJOR_AXIS":"6925.364","MEAN_MOTION_DDOT":"0.0000000000000","APOAPSIS":"548.417","FILE":"3323947","ELEMENT_SET_NO":"999","ECCENTRICITY":"0.00017160","OBJECT_NAME":"STARLINK-1694","REF_FRAME":"TEME","RA_OF_ASC_NODE":"293.6965","LAUNCH_DATE":"2020-10-06","NORAD_CAT_ID":"46544","EPHEMERIS_TYPE":"0","COUNTRY_CODE":"US","REV_AT_EPOCH":"7771","MEAN_MOTION":"15.06394995","MEAN_ELEMENT_THEORY":"SGP4","OBJECT_TYPE":"PAYLOAD","BSTAR":"0.00001992100000","CENTER_NAME":"EARTH","GP_ID":"197032768","EPOCH":"2022-02-25T19:07:13.928736","OBJECT_ID":"2020-070N","DECAY_DATE":null,"MEAN_ANOMALY":"295.9634","ARG_OF_PERICENTER":"64.1532","PERIOD":"95.592","SITE":"AFETR","CLASSIFICATION_TYPE":"U","PERIAPSIS":"546.041","TLE_LINE2":"2 46544  53.0554 293.6965 0001716  64.1532 295.9634 15.06394995 77714","TLE_LINE1":"1 46544U 20070N   22056.79668899  .00000015  00000-0  19921-4 0  9991","TIME_SYSTEM":"UTC"},{"TLE_LINE1":"1 46545U 20070P   22056.90404989  .00002039  00000-0  15569-3 0  9994","TLE_LINE2":"2 46545  53.0551 308.2234 0001710  73.0333 287.0844 15.06407754 77528","PERIAPSIS":"546.006","TIME_SYSTEM":"UTC","ARG_OF_PERICENTER":"73.0333","MEAN_ANOMALY":"287.0844","DECAY_DATE":null,"CLASSIFICATION_TYPE":"U","SITE":"AFETR","PERIOD":"95.592","BSTAR":"0.00015569000000","OBJECT_TYPE":"PAYLOAD","MEAN_ELEMENT_THEORY":"SGP4","MEAN_MOTION":"15.06407754","REV_AT_EPOCH":"7752","COUNTRY_CODE":"US","EPHEMERIS_TYPE":"0","OBJECT_ID":"2020-070P","EPOCH":"2022-02-25T21:41:49.910496","GP_ID":"197001376","CENTER_NAME":"EARTH","ELEMENT_SET_NO":"999","FILE":"3323524","APOAPSIS":"548.374","MEAN_MOTION_DDOT":"0.0000000000000","RCS_SIZE":"LARGE","SEMIMAJOR_AXIS":"6925.325","MEAN_MOTION_DOT":"0.00002039","INCLINATION":"53.0551","NORAD_CAT_ID":"46545","LAUNCH_DATE":"2020-10-06","RA_OF_ASC_NODE":"308.2234","REF_FRAME":"TEME","ECCENTRICITY":"0.00017100","OBJECT_NAME":"STARLINK-1696"},{"ARG_OF_PERICENTER":"58.5540","MEAN_ANOMALY":"301.5604","DECAY_DATE":null,"SITE":"AFETR","CLASSIFICATION_TYPE":"U","PERIOD":"95.592","TLE_LINE1":"1 46546U 20070Q   22056.88930048  .00003229  00000-0  23558-3 0  9991","TLE_LINE2":"2 46546  53.0546 308.2710 0001596  58.5540 301.5604 15.06402950 77510","PERIAPSIS":"546.099","TIME_SYSTEM":"UTC","ELEMENT_SET_NO":"999","APOAPSIS":"548.310","FILE":"3323947","MEAN_MOTION_DDOT":"0.0000000000000","MEAN_MOTION_DOT":"0.00003229","INCLINATION":"53.0546","RCS_SIZE":"LARGE","SEMIMAJOR_AXIS":"6925.340","NORAD_CAT_ID":"46546","LAUNCH_DATE":"2020-10-06","RA_OF_ASC_NODE":"308.2710","REF_FRAME":"TEME","ECCENTRICITY":"0.00015960","OBJECT_NAME":"STARLINK-1697","MEAN_ELEMENT_THEORY":"SGP4","OBJECT_TYPE":"PAYLOAD","BSTAR":"0.00023558000000","MEAN_MOTION":"15.06402950","COUNTRY_CODE":"US","EPHEMERIS_TYPE":"0","REV_AT_EPOCH":"7751","EPOCH":"2022-02-25T21:20:35.561472","OBJECT_ID":"2020-070Q","GP_ID":"197031772","CENTER_NAME":"EARTH"},{"CENTER_NAME":"EARTH","OBJECT_ID":"2020-070R","EPOCH":"2022-02-25T20:27:30.701952","GP_ID":"196998767","REV_AT_EPOCH":"7753","COUNTRY_CODE":"US","EPHEMERIS_TYPE":"0","BSTAR":"0.00011313000000","MEAN_ELEMENT_THEORY":"SGP4","OBJECT_TYPE":"PAYLOAD","MEAN_MOTION":"15.06393374","REF_FRAME":"TEME","OBJECT_NAME":"STARLINK-1698","ECCENTRICITY":"0.00016700","NORAD_CAT_ID":"46547","LAUNCH_DATE":"2020-10-06","RA_OF_ASC_NODE":"308.4412","MEAN_MOTION_DDOT":"0.0000000000000","SEMIMAJOR_AXIS":"6925.369","RCS_SIZE":"LARGE","MEAN_MOTION_DOT":"0.00001404","INCLINATION":"53.0550","ELEMENT_SET_NO":"999","APOAPSIS":"548.390","FILE":"3323441","TIME_SYSTEM":"UTC","TLE_LINE2":"2 46547  53.0550 308.4412 0001670  66.1551 293.9613 15.06393374 77532","PERIAPSIS":"546.077","TLE_LINE1":"1 46547U 20070R   22056.85243868  .00001404  00000-0  11313-3 0  9995","PERIOD":"95.593","CLASSIFICATION_TYPE":"U","SITE":"AFETR","DECAY_DATE":null,"ARG_OF_PERICENTER":"66.1551","MEAN_ANOMALY":"293.9613"},{"LAUNCH_DATE":"2020-10-06","RA_OF_ASC_NODE":"308.3990","NORAD_CAT_ID":"46548","ECCENTRICITY":"0.00015790","OBJECT_NAME":"STARLINK-1699","REF_FRAME":"TEME","FILE":"3323947","APOAPSIS":"548.311","ELEMENT_SET_NO":"999","INCLINATION":"53.0538","MEAN_MOTION_DOT":"0.00001983","SEMIMAJOR_AXIS":"6925.352","RCS_SIZE":"LARGE","MEAN_MOTION_DDOT":"0.0000000000000","GP_ID":"197032269","EPOCH":"2022-02-25T20:43:26.011200","OBJECT_ID":"2020-070S","CENTER_NAME":"EARTH","MEAN_MOTION":"15.06398818","MEAN_ELEMENT_THEORY":"SGP4","OBJECT_TYPE":"PAYLOAD","BSTAR":"0.00015199000000","COUNTRY_CODE":"US","EPHEMERIS_TYPE":"0","REV_AT_EPOCH":"7751","SITE":"AFETR","CLASSIFICATION_TYPE":"U","PERIOD":"95.592","MEAN_ANOMALY":"286.6438","ARG_OF_PERICENTER":"73.4724","DECAY_DATE":null,"TIME_SYSTEM":"UTC","TLE_LINE1":"1 46548U 20070S   22056.86349550  .00001983  00000-0  15199-3 0  9990","PERIAPSIS":"546.124","TLE_LINE2":"2 46548  53.0538 308.3990 0001579  73.4724 286.6438 15.06398818 77510"},{"ARG_OF_PERICENTER":"75.0289","MEAN_ANOMALY":"285.0879","DECAY_DATE":null,"CLASSIFICATION_TYPE":"U","SITE":"AFETR","PERIOD":"95.592","TLE_LINE1":"1 46549U 20070T   22056.89298703  .00000920  00000-0  80656-4 0  9998","TLE_LINE2":"2 46549  53.0530 308.2543 0001614  75.0289 285.0879 15.06398954 77513","PERIAPSIS":"546.099","TIME_SYSTEM":"UTC","ELEMENT_SET_NO":"999","FILE":"3323947","APOAPSIS":"548.335","MEAN_MOTION_DDOT":"0.0000000000000","RCS_SIZE":"LARGE","SEMIMAJOR_AXIS":"6925.352","MEAN_MOTION_DOT":"0.00000920","INCLINATION":"53.0530","NORAD_CAT_ID":"46549","LAUNCH_DATE":"2020-10-06","RA_OF_ASC_NODE":"308.2543","REF_FRAME":"TEME","ECCENTRICITY":"0.00016140","OBJECT_NAME":"STARLINK-1700","BSTAR":"0.00008065600000","OBJECT_TYPE":"PAYLOAD","MEAN_ELEMENT_THEORY":"SGP4","MEAN_MOTION":"15.06398954","REV_AT_EPOCH":"7751","COUNTRY_CODE":"US","EPHEMERIS_TYPE":"0","OBJECT_ID":"2020-070T","EPOCH":"2022-02-25T21:25:54.079392","GP_ID":"197033024","CENTER_NAME":"EARTH"},{"CENTER_NAME":"EARTH","EPOCH":"2022-02-25T21:04:40.187424","OBJECT_ID":"2020-070U","GP_ID":"197031273","EPHEMERIS_TYPE":"0","COUNTRY_CODE":"US","REV_AT_EPOCH":"7751","MEAN_ELEMENT_THEORY":"SGP4","OBJECT_TYPE":"PAYLOAD","BSTAR":"0.00003536700000","MEAN_MOTION":"15.06400217","REF_FRAME":"TEME","ECCENTRICITY":"0.00018620","OBJECT_NAME":"STARLINK-1701","NORAD_CAT_ID":"46550","LAUNCH_DATE":"2020-10-06","RA_OF_ASC_NODE":"308.3288","MEAN_MOTION_DDOT":"0.0000000000000","INCLINATION":"53.0545","MEAN_MOTION_DOT":"0.00000245","SEMIMAJOR_AXIS":"6925.348","RCS_SIZE":"LARGE","ELEMENT_SET_NO":"999","FILE":"3323947","APOAPSIS":"548.502","TIME_SYSTEM":"UTC","TLE_LINE2":"2 46550  53.0545 308.3288 0001862  61.3511 298.7665 15.06400217 77519","PERIAPSIS":"545.923","TLE_LINE1":"1 46550U 20070U   22056.87824291  .00000245  00000-0  35367-4 0  9994","PERIOD":"95.592","SITE":"AFETR","CLASSIFICATION_TYPE":"U","DECAY_DATE":null,"ARG_OF_PERICENTER":"61.3511","MEAN_ANOMALY":"298.7665"}];
